{
  "norad_id": 52098,
  "name": "STARLINK-3665",
  "history": [
    {
      "epoch": "2026-03-28T03:36:51.234336",
      "apogee_km": 540.5949228642685,
      "perigee_km": 538.8653177268516,
      "latitude_deg": 10.552053408993526,
      "longitude_deg": 124.25692703993991,
      "semi_major_axis_km": 6917.867120295559,
      "eccentricity": 0.00012501,
      "inclination_deg": 53.2195,
      "raan_deg": 6.2454,
      "arg_perigee_deg": 87.1133,
      "mean_anomaly_deg": 273.0003,
      "mean_motion_rev_day": 15.08844341
    },
    {
      "epoch": "2026-03-29T03:27:38.168064",
      "apogee_km": 540.6774331777378,
      "perigee_km": 538.7598036003192,
      "latitude_deg": -0.5311126026540263,
      "longitude_deg": -140.35759103973396,
      "semi_major_axis_km": 6917.855618389028,
      "eccentricity": 0.0001386,
      "inclination_deg": 53.2197,
      "raan_deg": 1.7867,
      "arg_perigee_deg": 85.2784,
      "mean_anomaly_deg": 274.8366,
      "mean_motion_rev_day": 15.08848104
    }
  ]
}